0 ATLAS 55E DEB
1 26921U 85093C   13283.49670736  .00000000  00000-0  10000-3 0  8313
2 26921 064.4067 067.7562 5369594 037.3186 350.0138 03.89995110299668
0 ATLAS 55E DEB
1 26921U 85093C   13283.50908664  .00000015  00000-0  00000+0 0  8309
2 26921 064.4022 067.8452 5367925 037.2609 007.3881 03.89996123299676
0 ATLAS 55E DEB
1 26921U 85093C   13285.81838117  .00000018  00000-0  00000+0 0  8314
2 26921 064.4009 067.2139 5368115 037.2205 009.6002 03.89995971299761
0 ATLAS 55E DEB
1 26921U 85093C   13295.29485324 -.00000035  00000-0  00000+0 0  8326
2 26921 064.3987 064.6286 5369031 037.0426 354.4078 03.89995665300138
